FLOCK 4BE-27            
1 60513U 24149AX  26063.66045970  .00014709  00000+0  47139-3 0  9996
2 60513  97.3878 145.5942 0002973 331.7354  28.3726 15.32456422 86125
FLOCK 4BE-9             
1 60514U 24149AY  26063.22471311  .00026302  00000+0  71896-3 0  9990
2 60514  97.3842 146.7258 0001701 329.8816  30.2330 15.37359515 86177
FLOCK 4BE-6             
1 60516U 24149BA  26063.63574416  .00022442  00000+0  63282-3 0  9998
2 60516  97.3843 146.6715 0002322 316.2539  43.8521 15.36421860 86207
FLOCK 4BE-14            
1 60517U 24149BB  26063.63781711  .00023170  00000+0  63173-3 0  9995
2 60517  97.3756 146.7438 0003250 312.7771  47.3200 15.37461269 86249
FLOCK 4BE-1             
1 60518U 24149BC  26063.16836539  .00029354  00000+0  76768-3 0  9997
2 60518  97.3831 147.2007 0003126 310.6203  49.4770 15.38702415 86204
FLOCK 4BE-28            
1 60519U 24149BD  26063.65651804  .00029754  00000+0  72807-3 0  9996
2 60519  97.3792 148.1125 0003488 307.7447  52.3483 15.40732215 86321
FLOCK 4BE-35            
1 60558U 24149CU  26063.45589941  .00137970  00000+0  31293-2 0  9992
2 60558  97.3800 146.6320 0004537 276.0787  83.9944 15.42530285 86197
FLOCK 4BE-5             
1 60559U 24149CV  26063.45324697  .00032212  00000+0  89644-3 0  9995
2 60559  97.3889 146.6906 0002518 317.6119  42.4930 15.36758194 86170
FLOCK 4BE-12            
1 60560U 24149CW  26063.22880831  .00149762  00000+0  30835-2 0  9995
2 60560  97.3773 147.1069 0005680 279.8944  80.1663 15.45354690 86229
FLOCK 4BE-3             
1 60561U 24149CX  26063.65513895  .00023695  00000+0  63539-3 0  9990
2 60561  97.3752 146.8173 0003126 303.2102  56.8843 15.37972710 86253
FLOCK 4BE-19            
1 60563U 24149CZ  26063.79881139  .00026109  00000+0  65315-3 0  9993
2 60563  97.3792 148.0483 0003197 308.4065  51.6893 15.40086911 86330
PELICAN-2               
1 62631U 25009Y   26063.20405221  .00071333  00000+0  17565-2 0  9999
2 62631  97.4036 153.4417 0006748 221.6640 138.4092 15.40310721 63392
PELICAN-3               
1 65315U 25188A   26063.67400564  .00050463  00000+0  12332-2 0  9993
2 65315  97.2250 141.2804 0002789 207.1167 152.9935 15.40657683 29221
PELICAN-4               
1 65316U 25188B   26063.17002456  .00015176  00000+0  37428-3 0  9993
2 65316  97.2337 140.8795 0004634 102.6575 257.5190 15.40623414 29146
